     3.00           N                   E                   RINEX VERSION / TYPE
BRD_USR             ESA                 20190114 041803  UTCPGM / RUN BY / DATE
 GAL   3.7500E+01  1.1719E-01 -6.1035E-04  0.0000E+00       IONOSPHERIC CORR
GAUT  1.8626451492E-09-1.776356839E-15  86400 2036 GSTB   0 TIME SYSTEM CORR
GPGA -4.9476511776E-10-6.217248938E-15  86400 2036 GSTB   0 TIME SYSTEM CORR
                                                            END OF HEADER
E02 2019 01 14 02 10 00 4.323484608904E-05 1.520561454527E-12 0.000000000000E+00
     2.900000000000E+01 3.837500000000E+01 2.966194982498E-09-9.442816612586E-01
     1.767650246620E-06 2.561945002526E-04 4.613772034645E-06 5.440612491608E+03
     9.420000000000E+04-2.048909664154E-08-3.070374205638E+00 1.862645149231E-09
     9.901125059772E-01 2.538125000000E+02-1.312124228727E-01-5.613090950626E-09
    -3.607293115380E-11 5.210000000000E+02 2.036000000000E+03 0.000000000000E+00
     3.120000000000E+00 0.000000000000E+00-5.820766091347E-09-7.217749953270E-09
     9.527500000000E+04 0.000000000000E+00 0.000000000000E+00 0.000000000000E+00
E31 2019 01 14 01 50 00 9.332487825304E-04-9.634959496907E-12 0.000000000000E+00
     2.700000000000E+01 3.700000000000E+01 3.019768642628E-09 2.697435364084E+00
     1.592561602592E-06 2.184167969972E-04 4.727393388748E-06 5.440620607376E+03
     9.300000000000E+04-5.587935447693E-09-3.072975696767E+00 1.117587089539E-08
     9.896430789723E-01 2.526562500000E+02-1.546348007670E+00-5.670950503565E-09
    -9.607543049875E-11 2.580000000000E+02 2.036000000000E+03 0.000000000000E+00
     3.120000000000E+00 0.000000000000E+00-2.328306436539E-10 0.000000000000E+00
     9.530000000000E+04 0.000000000000E+00 0.000000000000E+00 0.000000000000E+00
E31 2019 01 14 01 50 00 9.332487825304E-04-9.649170351622E-12 0.000000000000E+00
     2.700000000000E+01 3.700000000000E+01 3.019768642628E-09 2.697435364084E+00
     1.592561602592E-06 2.184167969972E-04 4.727393388748E-06 5.440620607376E+03
     9.300000000000E+04-5.587935447693E-09-3.072975696767E+00 1.117587089539E-08
     9.896430789723E-01 2.526562500000E+02-1.546348007670E+00-5.670950503565E-09
    -9.607543049875E-11 5.210000000000E+02 2.036000000000E+03 0.000000000000E+00
     3.120000000000E+00 0.000000000000E+00-2.328306436539E-10-4.656612873077E-10
     9.530500000000E+04 0.000000000000E+00 0.000000000000E+00 0.000000000000E+00
E14 2019 01 14 02 10 00 6.460262520704E-03-5.570655048359E-12 0.000000000000E+00
     2.900000000000E+01-2.215625000000E+01 6.473483932304E-09 7.431721126729E-02
    -1.201406121254E-06 1.662502699764E-01 1.099519431591E-05 5.289337970734E+03
     9.420000000000E+04-3.287568688393E-06-1.587219421123E+00-1.011416316032E-06
     8.826333381128E-01 1.626562500000E+02 1.457776080214E+00-1.092152635398E-08
    -1.817932867058E-10 2.580000000000E+02 2.036000000000E+03 0.000000000000E+00
     3.120000000000E+00 5.600000000000E+01 3.329478204250E-08 0.000000000000E+00
     9.535000000000E+04 0.000000000000E+00 0.000000000000E+00 0.000000000000E+00
E07 2019 01 14 02 10 00-1.121414243244E-04-7.077005648171E-12 0.000000000000E+00
     2.900000000000E+01-3.159375000000E+01 3.220491289246E-09-5.550909921222E-01
    -1.475214958191E-06 1.337637659162E-04 9.844079613686E-06 5.440621835709E+03
     9.420000000000E+04 1.303851604462E-08 1.120277292252E+00 2.235174179077E-08
     9.524907178045E-01 1.248437500000E+02 6.891660779620E-05-5.605233480473E-09
    -8.071764792831E-11 5.210000000000E+02 2.036000000000E+03 0.000000000000E+00
     3.120000000000E+00 0.000000000000E+00 4.656612873077E-10 2.328306436539E-10
     9.539500000000E+04 0.000000000000E+00 0.000000000000E+00 0.000000000000E+00
E07 2019 01 14 02 10 00-1.121414825320E-04-7.077005648171E-12 0.000000000000E+00
     2.900000000000E+01-3.159375000000E+01 3.220491289246E-09-5.550909921222E-01
    -1.475214958191E-06 1.337637659162E-04 9.844079613686E-06 5.440621835709E+03
     9.420000000000E+04 1.303851604462E-08 1.120277292252E+00 2.235174179077E-08
     9.524907178045E-01 1.248437500000E+02 6.891660779620E-05-5.605233480473E-09
    -8.071764792831E-11 2.580000000000E+02 2.036000000000E+03 0.000000000000E+00
     3.120000000000E+00 0.000000000000E+00 4.656612873077E-10 0.000000000000E+00
     9.540000000000E+04 0.000000000000E+00 0.000000000000E+00 0.000000000000E+00
E14 2019 01 14 02 10 00 6.460266828071E-03-5.570655048359E-12 0.000000000000E+00
     2.900000000000E+01-2.215625000000E+01 6.473483932304E-09 7.431721126729E-02
    -1.201406121254E-06 1.662502699764E-01 1.099519431591E-05 5.289337970734E+03
     9.420000000000E+04-3.287568688393E-06-1.587219421123E+00-1.011416316032E-06
     8.826333381128E-01 1.626562500000E+02 1.457776080214E+00-1.092152635398E-08
    -1.817932867058E-10 5.210000000000E+02 2.036000000000E+03 0.000000000000E+00
     3.120000000000E+00 4.550000000000E+02 3.329478204250E-08 3.725290298462E-08
     9.542500000000E+04 0.000000000000E+00 0.000000000000E+00 0.000000000000E+00
E01 2019 01 14 02 20 00-5.202785832807E-04-8.057554623520E-12 0.000000000000E+00
     3.000000000000E+01 3.062500000000E+01 2.978695503195E-09 2.724880400675E+00
     1.439824700356E-06 8.757202886045E-05 4.997476935387E-06 5.440614616394E+03
     9.480000000000E+04-4.097819328308E-08-3.070344874131E+00-5.587935447693E-09
     9.901042273238E-01 2.456562500000E+02-5.826776845329E-01-5.636306203348E-09
    -9.571827276455E-11 5.210000000000E+02 2.036000000000E+03 0.000000000000E+00
     3.120000000000E+00 0.000000000000E+00-4.656612873077E-09-5.355104804039E-09
     9.548500000000E+04 0.000000000000E+00 0.000000000000E+00 0.000000000000E+00
E02 2019 01 14 02 20 00 4.323571920395E-05 1.520561454527E-12 0.000000000000E+00
     3.000000000000E+01 3.906250000000E+01 2.982267080537E-09-8.700725376936E-01
     1.808628439903E-06 2.561174333096E-04 4.624947905540E-06 5.440612312317E+03
     9.480000000000E+04 1.862645149231E-09-3.070377339209E+00 4.284083843231E-08
     9.901124064988E-01 2.536562500000E+02-1.310364060323E-01-5.641663569361E-09
    -5.607376426879E-11 5.210000000000E+02 2.036000000000E+03 0.000000000000E+00
     3.120000000000E+00 0.000000000000E+00-5.820766091347E-09-7.217749953270E-09
     9.548500000000E+04 0.000000000000E+00 0.000000000000E+00 0.000000000000E+00
E04 2019 01 14 02 20 00-1.995647908188E-04-7.858602657507E-12 0.000000000000E+00
     3.000000000000E+01-3.996875000000E+01 3.184418358092E-09 1.316030244868E+00
    -1.829117536545E-06 7.469288539141E-05 1.095235347748E-05 5.440618673325E+03
     9.480000000000E+04 6.332993507385E-08 1.120323520463E+00 2.421438694000E-08
     9.524907324336E-01 1.005625000000E+02 2.134473005185E+00-5.600947587663E-09
    -1.435774091468E-10 5.210000000000E+02 2.036000000000E+03 0.000000000000E+00
     3.120000000000E+00 0.000000000000E+00-8.149072527885E-09-9.080395102501E-09
     9.548500000000E+04 0.000000000000E+00 0.000000000000E+00 0.000000000000E+00
E07 2019 01 14 02 20 00-1.121456152759E-04-7.077005648171E-12 0.000000000000E+00
     3.000000000000E+01-3.203125000000E+01 3.214776765499E-09-4.804839211925E-01
    -1.493841409683E-06 1.339707523584E-04 9.778887033463E-06 5.440622255325E+03
     9.480000000000E+04 1.117587089539E-08 1.120273934855E+00 2.421438694000E-08
     9.524906592877E-01 1.264375000000E+02-1.529861210574E-04-5.606662111410E-09
    -8.107480566251E-11 5.210000000000E+02 2.036000000000E+03 0.000000000000E+00
     3.120000000000E+00 0.000000000000E+00 4.656612873077E-10 2.328306436539E-10
     9.548500000000E+04 0.000000000000E+00 0.000000000000E+00 0.000000000000E+00
E08 2019 01 14 02 20 00 6.423884769902E-03-7.460698725481E-12 0.000000000000E+00
     3.000000000000E+01-3.862500000000E+01 3.064770517137E-09-1.638328335294E-01
    -1.771375536919E-06 2.148585626855E-04 1.002289354801E-05 5.440620281219E+03
     9.480000000000E+04 5.587935447693E-09 1.111667644848E+00 4.842877388000E-08
     9.584339936629E-01 1.253125000000E+02 4.697941608125E-01-5.523444359342E-09
    -3.714440435639E-11 5.210000000000E+02 2.036000000000E+03 0.000000000000E+00
     3.120000000000E+00 0.000000000000E+00-8.381903171539E-09-9.546056389809E-09
     9.548500000000E+04 0.000000000000E+00 0.000000000000E+00 0.000000000000E+00
E09 2019 01 14 02 20 00 6.558947963640E-03-1.131184035330E-11 0.000000000000E+00
     3.000000000000E+01-4.990625000000E+01 3.185132673561E-09 2.570826721001E+00
    -2.285465598106E-06 2.402062527835E-04 1.084059476852E-05 5.440618011475E+03
     9.480000000000E+04 5.029141902924E-08 1.111666361869E+00-2.421438694000E-08
     9.584637362504E-01 1.056875000000E+02 9.005635043133E-02-5.612376635157E-09
    -1.814361289716E-10 5.210000000000E+02 2.036000000000E+03 0.000000000000E+00
     3.120000000000E+00 0.000000000000E+00-3.259629011154E-09-3.958120942116E-09
     9.548500000000E+04 0.000000000000E+00 0.000000000000E+00 0.000000000000E+00
E14 2019 01 14 02 20 00 6.460263626650E-03-5.570655048359E-12 0.000000000000E+00
     3.000000000000E+01-3.528125000000E+01 6.158470810743E-09 1.552627053949E-01
    -2.123415470123E-06 1.662523011910E-01 1.107342541218E-05 5.289344877243E+03
     9.480000000000E+04-3.553926944733E-06-1.587230777756E+00-1.819804310799E-06
     8.826332079131E-01 1.623750000000E+02 1.457788879284E+00-1.034221650912E-08
     1.550064566411E-10 5.210000000000E+02 2.036000000000E+03 0.000000000000E+00
     3.120000000000E+00 4.550000000000E+02 3.329478204250E-08 3.725290298462E-08
     9.548500000000E+04 0.000000000000E+00 0.000000000000E+00 0.000000000000E+00
